IRIDIUM 136             
1 42962U 17061H   24066.35697099  .00000296  00000+0  98548-4 0  9998
2 42962  86.4018  13.2799 0001943  84.9942 275.1476 14.34220489335466
